start=new Date('2023-04-05T00:00:00.000Z').valueOf();
sats=[{"OBJECT_ID":"2020-074BH","NORAD_CAT_ID":"46794","MEAN_MOTION_DDOT":"0.0000000000000","SEMIMAJOR_AXIS":"6925.300","EPOCH":"2023-04-04T16:15:13.192128","CENTER_NAME":"EARTH","ECCENTRICITY":"0.00008020","SITE":"AFETR","ELEMENT_SET_NO":"999","OBJECT_TYPE":"PAYLOAD","COUNTRY_CODE":"US","TLE_LINE1":"1 46794U 20074BH  23094.67723602  .00007326  00000-0  50996-3 0  9994","PERIOD":"95.591","LAUNCH_DATE":"2020-10-24","REF_FRAME":"TEME","RCS_SIZE":"LARGE","REV_AT_EPOCH":"13540","EPHEMERIS_TYPE":"0","DECAY_DATE":null,"TIME_SYSTEM":"UTC","GP_ID":"229492929","BSTAR":"0.00050996000000","MEAN_ELEMENT_THEORY":"SGP4","TLE_LINE2":"2 46794  53.0529  85.0885 0000802  90.7126 269.3955 15.06415947135409","CLASSIFICATION_TYPE":"U","INCLINATION":"53.0529","MEAN_ANOMALY":"269.3955","ARG_OF_PERICENTER":"90.7126","FILE":"3880211","RA_OF_ASC_NODE":"85.0885","MEAN_MOTION_DOT":"0.00007326","APOAPSIS":"547.720","PERIAPSIS":"546.609","OBJECT_NAME":"STARLINK-1942","MEAN_MOTION":"15.06415947"},{"DECAY_DATE":null,"REV_AT_EPOCH":"13549","EPHEMERIS_TYPE":"0","INCLINATION":"53.0529","CLASSIFICATION_TYPE":"U","TLE_LINE2":"2 46796  53.0529  76.3906 0001479 101.1907 258.9248 15.06442764135498","MEAN_ELEMENT_THEORY":"SGP4","BSTAR":"0.00143760000000","GP_ID":"229462821","TIME_SYSTEM":"UTC","MEAN_MOTION_DOT":"0.00021221","RA_OF_ASC_NODE":"76.3906","FILE":"3879974","ARG_OF_PERICENTER":"101.1907","MEAN_ANOMALY":"258.9248","MEAN_MOTION":"15.06442764","OBJECT_NAME":"STARLINK-1944","PERIAPSIS":"546.058","APOAPSIS":"548.107","OBJECT_ID":"2020-074BK","ECCENTRICITY":"0.00014790","CENTER_NAME":"EARTH","EPOCH":"2023-04-04T09:17:13.759584","SEMIMAJOR_AXIS":"6925.217","MEAN_MOTION_DDOT":"0.0000000000000","NORAD_CAT_ID":"46796","COUNTRY_CODE":"US","OBJECT_TYPE":"PAYLOAD","ELEMENT_SET_NO":"999","SITE":"AFETR","RCS_SIZE":"LARGE","REF_FRAME":"TEME","LAUNCH_DATE":"2020-10-24","PERIOD":"95.589","TLE_LINE1":"1 46796U 20074BK  23094.38696481  .00021221  00000-0  14376-2 0  9999"},{"ELEMENT_SET_NO":"999","OBJECT_TYPE":"PAYLOAD","SITE":"AFETR","COUNTRY_CODE":"US","TLE_LINE1":"1 46798U 20074BM  23094.41873962  .00019821  00000-0  13456-2 0  9997","PERIOD":"95.592","REF_FRAME":"TEME","RCS_SIZE":"LARGE","LAUNCH_DATE":"2020-10-24","OBJECT_ID":"2020-074BM","NORAD_CAT_ID":"46798","CENTER_NAME":"EARTH","EPOCH":"2023-04-04T10:02:59.103168","ECCENTRICITY":"0.00011270","MEAN_MOTION_DDOT":"0.0000000000000","SEMIMAJOR_AXIS":"6925.329","FILE":"3879974","ARG_OF_PERICENTER":"81.7532","MEAN_ANOMALY":"278.3585","RA_OF_ASC_NODE":"101.2479","MEAN_MOTION_DOT":"0.00019821","OBJECT_NAME":"STARLINK-1948","PERIAPSIS":"546.413","APOAPSIS":"547.974","MEAN_MOTION":"15.06406387","REV_AT_EPOCH":"13515","EPHEMERIS_TYPE":"0","DECAY_DATE":null,"BSTAR":"0.00134560000000","GP_ID":"229461570","TIME_SYSTEM":"UTC","INCLINATION":"53.0530","CLASSIFICATION_TYPE":"U","MEAN_ELEMENT_THEORY":"SGP4","TLE_LINE2":"2 46798  53.0530 101.2479 0001127  81.7532 278.3585 15.06406387135156"},{"ECCENTRICITY":"0.00012810","CENTER_NAME":"EARTH","EPOCH":"2023-04-04T10:32:52.491552","SEMIMAJOR_AXIS":"6925.194","MEAN_MOTION_DDOT":"0.0000000000000","NORAD_CAT_ID":"47122","OBJECT_ID":"2020-088A","RCS_SIZE":"LARGE","REF_FRAME":"TEME","LAUNCH_DATE":"2020-11-25","PERIOD":"95.589","TLE_LINE1":"1 47122U 20088A   23094.43949643  .00022309  00000-0  15098-2 0  9995","COUNTRY_CODE":"US","OBJECT_TYPE":"PAYLOAD","ELEMENT_SET_NO":"999","SITE":"AFETR","INCLINATION":"53.0540","CLASSIFICATION_TYPE":"U","MEAN_ELEMENT_THEORY":"SGP4","TLE_LINE2":"2 47122  53.0540  66.1590 0001281  96.7512 263.3623 15.06450451130521","BSTAR":"0.00150980000000","GP_ID":"229461102","TIME_SYSTEM":"UTC","DECAY_DATE":null,"EPHEMERIS_TYPE":"0","REV_AT_EPOCH":"13052","MEAN_MOTION":"15.06450451","OBJECT_NAME":"STARLINK-1777","PERIAPSIS":"546.172","APOAPSIS":"547.946","MEAN_MOTION_DOT":"0.00022309","RA_OF_ASC_NODE":"66.1590","FILE":"3879974","ARG_OF_PERICENTER":"96.7512","MEAN_ANOMALY":"263.3623"},{"MEAN_MOTION_DOT":"0.00003607","RA_OF_ASC_NODE":"69.1413","MEAN_ANOMALY":"290.3742","ARG_OF_PERICENTER":"69.7488","FILE":"3880211","MEAN_MOTION":"15.06389683","APOAPSIS":"548.803","PERIAPSIS":"545.688","OBJECT_NAME":"STARLINK-1785","DECAY_DATE":null,"EPHEMERIS_TYPE":"0","REV_AT_EPOCH":"13052","MEAN_ELEMENT_THEORY":"SGP4","TLE_LINE2":"2 47124  53.0547  69.1413 0002249  69.7488 290.3742 15.06389683130524","CLASSIFICATION_TYPE":"U","INCLINATION":"53.0547","GP_ID":"229492712","TIME_SYSTEM":"UTC","BSTAR":"0.00026098000000","COUNTRY_CODE":"US","SITE":"AFETR","OBJECT_TYPE":"PAYLOAD","ELEMENT_SET_NO":"999","LAUNCH_DATE":"2020-11-25","RCS_SIZE":"LARGE","REF_FRAME":"TEME","PERIOD":"95.593","TLE_LINE1":"1 47124U 20088C   23094.89057539  .00003607  00000-0  26098-3 0  9994","OBJECT_ID":"2020-088C","SEMIMAJOR_AXIS":"6925.380","MEAN_MOTION_DDOT":"0.0000000000000","ECCENTRICITY":"0.00022490","EPOCH":"2023-04-04T21:22:25.713696","CENTER_NAME":"EARTH","NORAD_CAT_ID":"47124"},{"MEAN_MOTION":"15.06384857","APOAPSIS":"548.455","PERIAPSIS":"546.065","OBJECT_NAME":"STARLINK-1812","MEAN_MOTION_DOT":"-0.00006220","RA_OF_ASC_NODE":"63.9549","MEAN_ANOMALY":"267.9508","ARG_OF_PERICENTER":"92.1678","FILE":"3880211","MEAN_ELEMENT_THEORY":"SGP4","TLE_LINE2":"2 47126  53.0536  63.9549 0001726  92.1678 267.9508 15.06384857130603","INCLINATION":"53.0536","CLASSIFICATION_TYPE":"U","TIME_SYSTEM":"UTC","GP_ID":"229492961","BSTAR":"-0.00039916000000","DECAY_DATE":null,"REV_AT_EPOCH":"13060","EPHEMERIS_TYPE":"0","LAUNCH_DATE":"2020-11-25","RCS_SIZE":"LARGE","REF_FRAME":"TEME","PERIOD":"95.593","TLE_LINE1":"1 47126U 20088E   23094.92973553 -.00006220  00000-0 -39916-3 0  9992","COUNTRY_CODE":"US","SITE":"AFETR","OBJECT_TYPE":"PAYLOAD","ELEMENT_SET_NO":"999","SEMIMAJOR_AXIS":"6925.395","MEAN_MOTION_DDOT":"0.0000000000000","ECCENTRICITY":"0.00017260","EPOCH":"2023-04-04T22:18:49.149792","CENTER_NAME":"EARTH","NORAD_CAT_ID":"47126","OBJECT_ID":"2020-088E"},{"OBJECT_TYPE":"PAYLOAD","ELEMENT_SET_NO":"999","SITE":"AFETR","COUNTRY_CODE":"US","PERIOD":"95.593","TLE_LINE1":"1 47128U 20088G   23094.88735229  .00014123  00000-0  96539-3 0  9998","RCS_SIZE":"LARGE","REF_FRAME":"TEME","LAUNCH_DATE":"2020-11-25","OBJECT_ID":"2020-088G","NORAD_CAT_ID":"47128","ECCENTRICITY":"0.00011210","CENTER_NAME":"EARTH","EPOCH":"2023-04-04T21:17:47.237856","SEMIMAJOR_AXIS":"6925.383","MEAN_MOTION_DDOT":"0.0000000000000","FILE":"3880211","MEAN_ANOMALY":"270.8316","ARG_OF_PERICENTER":"89.2802","MEAN_MOTION_DOT":"0.00014123","RA_OF_ASC_NODE":"44.1442","PERIAPSIS":"546.471","OBJECT_NAME":"STARLINK-1837","APOAPSIS":"548.024","MEAN_MOTION":"15.06388893","REV_AT_EPOCH":"13087","EPHEMERIS_TYPE":"0","DECAY_DATE":null,"BSTAR":"0.00096539000000","TIME_SYSTEM":"UTC","GP_ID":"229493212","INCLINATION":"53.0549","CLASSIFICATION_TYPE":"U","TLE_LINE2":"2 47128  53.0549  44.1442 0001121  89.2802 270.8316 15.06388893130870","MEAN_ELEMENT_THEORY":"SGP4"},{"PERIOD":"95.593","TLE_LINE1":"1 47129U 20088H   23094.91591034  .00016815  00000-0  11454-2 0  9999","RCS_SIZE":"LARGE","REF_FRAME":"TEME","LAUNCH_DATE":"2020-11-25","OBJECT_TYPE":"PAYLOAD","ELEMENT_SET_NO":"999","SITE":"AFETR","COUNTRY_CODE":"US","NORAD_CAT_ID":"47129","ECCENTRICITY":"0.00013990","EPOCH":"2023-04-04T21:58:54.653376","CENTER_NAME":"EARTH","SEMIMAJOR_AXIS":"6925.383","MEAN_MOTION_DDOT":"0.0000000000000","OBJECT_ID":"2020-088H","OBJECT_NAME":"STARLINK-1838","PERIAPSIS":"546.279","APOAPSIS":"548.217","MEAN_MOTION":"15.06388833","FILE":"3880211","MEAN_ANOMALY":"252.0456","ARG_OF_PERICENTER":"108.0685","MEAN_MOTION_DOT":"0.00016815","RA_OF_ASC_NODE":"54.0169","BSTAR":"0.00114540000000","TIME_SYSTEM":"UTC","GP_ID":"229493960","CLASSIFICATION_TYPE":"U","INCLINATION":"53.0547","TLE_LINE2":"2 47129  53.0547  54.0169 0001399 108.0685 252.0456 15.06388833130748","MEAN_ELEMENT_THEORY":"SGP4","EPHEMERIS_TYPE":"0","REV_AT_EPOCH":"13074","DECAY_DATE":null},{"PERIOD":"91.078","TLE_LINE1":"1 47130U 20088J   23095.00001157  .00237316  00000-0  11616-2 0  9995","RCS_SIZE":"LARGE","REF_FRAME":"TEME","LAUNCH_DATE":"2020-11-25","OBJECT_TYPE":"PAYLOAD","ELEMENT_SET_NO":"999","SITE":"AFETR","COUNTRY_CODE":"US","NORAD_CAT_ID":"47130","ECCENTRICITY":"0.00056790","CENTER_NAME":"EARTH","EPOCH":"2023-04-05T00:00:00.999648","SEMIMAJOR_AXIS":"6705.551","MEAN_MOTION_DDOT":"0.0000000000000","OBJECT_ID":"2020-088J","PERIAPSIS":"323.608","OBJECT_NAME":"STARLINK-1839","APOAPSIS":"331.224","MEAN_MOTION":"15.81069718","FILE":"3880211","ARG_OF_PERICENTER":"138.2002","MEAN_ANOMALY":"116.8921","MEAN_MOTION_DOT":"0.00237316","RA_OF_ASC_NODE":"10.2467","BSTAR":"0.00116160000000","TIME_SYSTEM":"UTC","GP_ID":"229492212","INCLINATION":"53.0451","CLASSIFICATION_TYPE":"U","TLE_LINE2":"2 47130  53.0451  10.2467 0005679 138.2002 116.8921 15.81069718  1306","MEAN_ELEMENT_THEORY":"SGP4","REV_AT_EPOCH":"130","EPHEMERIS_TYPE":"0","DECAY_DATE":null},{"MEAN_ELEMENT_THEORY":"SGP4","TLE_LINE2":"2 47133  53.0538  56.7295 0000717  90.9086 269.1985 15.06432956130640","INCLINATION":"53.0538","CLASSIFICATION_TYPE":"U","TIME_SYSTEM":"UTC","GP_ID":"229462603","BSTAR":"0.00216440000000","DECAY_DATE":null,"EPHEMERIS_TYPE":"0","REV_AT_EPOCH":"13064","MEAN_MOTION":"15.06432956","APOAPSIS":"547.609","OBJECT_NAME":"STARLINK-1843","PERIAPSIS":"546.616","RA_OF_ASC_NODE":"56.7295","MEAN_MOTION_DOT":"0.00032133","MEAN_ANOMALY":"269.1985","ARG_OF_PERICENTER":"90.9086","FILE":"3879974","MEAN_MOTION_DDOT":"0.0000000000000","SEMIMAJOR_AXIS":"6925.248","CENTER_NAME":"EARTH","EPOCH":"2023-04-04T07:28:24.777696","ECCENTRICITY":"0.00007170","NORAD_CAT_ID":"47133","OBJECT_ID":"2020-088M","LAUNCH_DATE":"2020-11-25","REF_FRAME":"TEME","RCS_SIZE":"LARGE","TLE_LINE1":"1 47133U 20088M   23094.31139789  .00032133  00000-0  21644-2 0  9996","PERIOD":"95.590","COUNTRY_CODE":"US","SITE":"AFETR","ELEMENT_SET_NO":"999","OBJECT_TYPE":"PAYLOAD"}];
